[{"OBJECT_NAME":"ONEWEB-0656","OBJECT_ID":"2023-029X","EPOCH":"2026-05-08T23:05:30.780384","MEAN_MOTION":13.20732434,"ECCENTRICITY":0.0002116,"INCLINATION":87.916,"RA_OF_ASC_NODE":282.2534,"ARG_OF_PERICENTER":108.3996,"MEAN_ANOMALY":251.7367,"EPHEMERIS_TYPE":0,"CLASSIFICATION_TYPE":"U","NORAD_CAT_ID":55817,"ELEMENT_SET_NO":999,"REV_AT_EPOCH":15597,"BSTAR":-0.00010619000000000001,"MEAN_MOTION_DOT":-3e-07,"MEAN_MOTION_DDOT":0.0},{"OBJECT_NAME":"ONEWEB-0657","OBJECT_ID":"2023-029Y","EPOCH":"2026-05-09T00:39:22.284000","MEAN_MOTION":13.1972513,"ECCENTRICITY":0.0001466,"INCLINATION":87.9145,"RA_OF_ASC_NODE":312.7846,"ARG_OF_PERICENTER":112.6169,"MEAN_ANOMALY":247.5119,"EPHEMERIS_TYPE":0,"CLASSIFICATION_TYPE":"U","NORAD_CAT_ID":55818,"ELEMENT_SET_NO":999,"REV_AT_EPOCH":15374,"BSTAR":3.4318e-05,"MEAN_MOTION_DOT":2.7e-07,"MEAN_MOTION_DDOT":0.0},{"OBJECT_NAME":"ONEWEB-0658","OBJECT_ID":"2023-029Z","EPOCH":"2026-05-09T00:32:32.739360","MEAN_MOTION":13.19746918,"ECCENTRICITY":0.0001494,"INCLINATION":87.915,"RA_OF_ASC_NODE":312.7576,"ARG_OF_PERICENTER":85.7538,"MEAN_ANOMALY":274.3766,"EPHEMERIS_TYPE":0,"CLASSIFICATION_TYPE":"U","NORAD_CAT_ID":55819,"ELEMENT_SET_NO":999,"REV_AT_EPOCH":15375,"BSTAR":-0.01074,"MEAN_MOTION_DOT":-4.286e-05,"MEAN_MOTION_DDOT":0.0},{"OBJECT_NAME":"ONEWEB-0660","OBJECT_ID":"2023-029AA","EPOCH":"2026-05-09T00:03:01.736352","MEAN_MOTION":13.14504312,"ECCENTRICITY":0.0001956,"INCLINATION":87.8932,"RA_OF_ASC_NODE":297.5144,"ARG_OF_PERICENTER":87.3402,"MEAN_ANOMALY":272.7952,"EPHEMERIS_TYPE":0,"CLASSIFICATION_TYPE":"U","NORAD_CAT_ID":55820,"ELEMENT_SET_NO":999,"REV_AT_EPOCH":15425,"BSTAR":0.00054665,"MEAN_MOTION_DOT":2.15e-06,"MEAN_MOTION_DDOT":0.0},{"OBJECT_NAME":"ONEWEB-0661","OBJECT_ID":"2023-029AB","EPOCH":"2026-05-08T23:03:40.320576","MEAN_MOTION":13.14503898,"ECCENTRICITY":0.0002045,"INCLINATION":87.892,"RA_OF_ASC_NODE":297.5729,"ARG_OF_PERICENTER":88.6784,"MEAN_ANOMALY":271.458,"EPHEMERIS_TYPE":0,"CLASSIFICATION_TYPE":"U","NORAD_CAT_ID":55821,"ELEMENT_SET_NO":999,"REV_AT_EPOCH":15423,"BSTAR":-0.00046474,"MEAN_MOTION_DOT":-1.6e-06,"MEAN_MOTION_DDOT":0.0},{"OBJECT_NAME":"ONEWEB-0662","OBJECT_ID":"2023-029AC","EPOCH":"2026-05-08T23:53:54.722400","MEAN_MOTION":13.14503993,"ECCENTRICITY":0.0001966,"INCLINATION":87.8917,"RA_OF_ASC_NODE":297.5729,"ARG_OF_PERICENTER":85.4697,"MEAN_ANOMALY":274.6658,"EPHEMERIS_TYPE":0,"CLASSIFICATION_TYPE":"U","NORAD_CAT_ID":55822,"ELEMENT_SET_NO":999,"REV_AT_EPOCH":15428,"BSTAR":0.00066148,"MEAN_MOTION_DOT":2.58e-06,"MEAN_MOTION_DDOT":0.0},{"OBJECT_NAME":"ONEWEB-0663","OBJECT_ID":"2023-029AD","EPOCH":"2026-05-08T22:09:23.620320","MEAN_MOTION":13.20866438,"ECCENTRICITY":0.0001859,"INCLINATION":87.9159,"RA_OF_ASC_NODE":282.3338,"ARG_OF_PERICENTER":82.7438,"MEAN_ANOMALY":277.3906,"EPHEMERIS_TYPE":0,"CLASSIFICATION_TYPE":"U","NORAD_CAT_ID":55823,"ELEMENT_SET_NO":999,"REV_AT_EPOCH":15596,"BSTAR":0.00019575999999999998,"MEAN_MOTION_DOT":9.3e-07,"MEAN_MOTION_DDOT":0.0},{"OBJECT_NAME":"ONEWEB-0664","OBJECT_ID":"2023-029AE","EPOCH":"2026-05-08T22:47:02.500800","MEAN_MOTION":13.20836737,"ECCENTRICITY":0.0002304,"INCLINATION":87.9145,"RA_OF_ASC_NODE":282.3142,"ARG_OF_PERICENTER":95.4708,"MEAN_ANOMALY":264.6688,"EPHEMERIS_TYPE":0,"CLASSIFICATION_TYPE":"U","NORAD_CAT_ID":55824,"ELEMENT_SET_NO":999,"REV_AT_EPOCH":15596,"BSTAR":0.0013556000000000002,"MEAN_MOTION_DOT":5.65e-06,"MEAN_MOTION_DDOT":0.0},{"OBJECT_NAME":"ONEWEB-0665","OBJECT_ID":"2023-029AF","EPOCH":"2026-05-09T00:48:43.374240","MEAN_MOTION":13.14503171,"ECCENTRICITY":0.000189,"INCLINATION":87.8921,"RA_OF_ASC_NODE":297.5389,"ARG_OF_PERICENTER":83.779,"MEAN_ANOMALY":276.3555,"EPHEMERIS_TYPE":0,"CLASSIFICATION_TYPE":"U","NORAD_CAT_ID":55825,"ELEMENT_SET_NO":999,"REV_AT_EPOCH":15426,"BSTAR":-0.00050657,"MEAN_MOTION_DOT":-1.75e-06,"MEAN_MOTION_DDOT":0.0},{"OBJECT_NAME":"ONEWEB-0666","OBJECT_ID":"2023-029AG","EPOCH":"2026-05-08T22:37:48.339840","MEAN_MOTION":13.20879595,"ECCENTRICITY":0.0001713,"INCLINATION":87.914,"RA_OF_ASC_NODE":282.3049,"ARG_OF_PERICENTER":118.9388,"MEAN_ANOMALY":241.1917,"EPHEMERIS_TYPE":0,"CLASSIFICATION_TYPE":"U","NORAD_CAT_ID":55826,"ELEMENT_SET_NO":999,"REV_AT_EPOCH":15597,"BSTAR":0.0061,"MEAN_MOTION_DOT":2.498e-05,"MEAN_MOTION_DDOT":0.0},{"OBJECT_NAME":"ONEWEB-0667","OBJECT_ID":"2023-029AH","EPOCH":"2026-05-08T22:29:08.462400","MEAN_MOTION":13.20730797,"ECCENTRICITY":0.0001927,"INCLINATION":87.9163,"RA_OF_ASC_NODE":282.2578,"ARG_OF_PERICENTER":92.5175,"MEAN_ANOMALY":267.6179,"EPHEMERIS_TYPE":0,"CLASSIFICATION_TYPE":"U","NORAD_CAT_ID":55827,"ELEMENT_SET_NO":999,"REV_AT_EPOCH":15596,"BSTAR":7.125399999999999e-05,"MEAN_MOTION_DOT":4.2e-07,"MEAN_MOTION_DDOT":0.0},{"OBJECT_NAME":"ONEWEB-0669","OBJECT_ID":"2023-029AJ","EPOCH":"2026-05-08T22:22:12.526752","MEAN_MOTION":13.20770692,"ECCENTRICITY":0.0002314,"INCLINATION":87.915,"RA_OF_ASC_NODE":282.2733,"ARG_OF_PERICENTER":107.3043,"MEAN_ANOMALY":252.8343,"EPHEMERIS_TYPE":0,"CLASSIFICATION_TYPE":"U","NORAD_CAT_ID":55828,"ELEMENT_SET_NO":999,"REV_AT_EPOCH":15596,"BSTAR":-2.7839000000000002e-05,"MEAN_MOTION_DOT":2e-08,"MEAN_MOTION_DDOT":0.0},{"OBJECT_NAME":"ONEWEB-0670","OBJECT_ID":"2023-029AK","EPOCH":"2026-05-09T00:16:45.126624","MEAN_MOTION":13.14503268,"ECCENTRICITY":0.0002161,"INCLINATION":87.8921,"RA_OF_ASC_NODE":297.5612,"ARG_OF_PERICENTER":90.9625,"MEAN_ANOMALY":269.1753,"EPHEMERIS_TYPE":0,"CLASSIFICATION_TYPE":"U","NORAD_CAT_ID":55829,"ELEMENT_SET_NO":999,"REV_AT_EPOCH":15428,"BSTAR":0.00016323,"MEAN_MOTION_DOT":7.3e-07,"MEAN_MOTION_DDOT":0.0},{"OBJECT_NAME":"ONEWEB-0671","OBJECT_ID":"2023-029AL","EPOCH":"2026-05-09T00:25:42.875040","MEAN_MOTION":13.19725762,"ECCENTRICITY":0.0001912,"INCLINATION":87.9146,"RA_OF_ASC_NODE":312.7875,"ARG_OF_PERICENTER":85.7153,"MEAN_ANOMALY":274.4198,"EPHEMERIS_TYPE":0,"CLASSIFICATION_TYPE":"U","NORAD_CAT_ID":55830,"ELEMENT_SET_NO":999,"REV_AT_EPOCH":15373,"BSTAR":0.00017723,"MEAN_MOTION_DOT":8.4e-07,"MEAN_MOTION_DDOT":0.0},{"OBJECT_NAME":"ONEWEB-0672","OBJECT_ID":"2023-029AM","EPOCH":"2026-05-08T22:15:18.591264","MEAN_MOTION":13.20747072,"ECCENTRICITY":0.0002061,"INCLINATION":87.9152,"RA_OF_ASC_NODE":282.2667,"ARG_OF_PERICENTER":116.4983,"MEAN_ANOMALY":243.6362,"EPHEMERIS_TYPE":0,"CLASSIFICATION_TYPE":"U","NORAD_CAT_ID":55831,"ELEMENT_SET_NO":999,"REV_AT_EPOCH":15596,"BSTAR":0.030974,"MEAN_MOTION_DOT":0.0001262,"MEAN_MOTION_DDOT":0.0},{"OBJECT_NAME":"ONEWEB-0673","OBJECT_ID":"2023-029AN","EPOCH":"2026-05-09T01:41:53.574144","MEAN_MOTION":13.19723938,"ECCENTRICITY":0.0001938,"INCLINATION":87.9154,"RA_OF_ASC_NODE":312.7652,"ARG_OF_PERICENTER":87.6401,"MEAN_ANOMALY":272.4953,"EPHEMERIS_TYPE":0,"CLASSIFICATION_TYPE":"U","NORAD_CAT_ID":55832,"ELEMENT_SET_NO":999,"REV_AT_EPOCH":15374,"BSTAR":0.00028035,"MEAN_MOTION_DOT":1.25e-06,"MEAN_MOTION_DDOT":0.0}]