ONEWEB-0656             
1 55817U 23029X   26128.96216181 -.00000030  00000+0 -10619-3 0  9999
2 55817  87.9160 282.2534 0002116 108.3996 251.7367 13.20732434155978
ONEWEB-0657             
1 55818U 23029Y   26129.02734125  .00000027  00000+0  34318-4 0  9998
2 55818  87.9145 312.7846 0001466 112.6169 247.5119 13.19725130153748
ONEWEB-0658             
1 55819U 23029Z   26129.02260115 -.00004286  00000+0 -10740-1 0  9995
2 55819  87.9150 312.7576 0001494  85.7538 274.3766 13.19746918153750
ONEWEB-0660             
1 55820U 23029AA  26129.00210343  .00000215  00000+0  54665-3 0  9995
2 55820  87.8932 297.5144 0001956  87.3402 272.7952 13.14504312154251
ONEWEB-0661             
1 55821U 23029AB  26128.96088334 -.00000160  00000+0 -46474-3 0  9993
2 55821  87.8920 297.5729 0002045  88.6784 271.4580 13.14503898154234
ONEWEB-0662             
1 55822U 23029AC  26128.99577225  .00000258  00000+0  66148-3 0  9995
2 55822  87.8917 297.5729 0001966  85.4697 274.6658 13.14503993154282
ONEWEB-0663             
1 55823U 23029AD  26128.92319005  .00000093  00000+0  19576-3 0  9999
2 55823  87.9159 282.3338 0001859  82.7438 277.3906 13.20866438155969
ONEWEB-0664             
1 55824U 23029AE  26128.94933450  .00000565  00000+0  13556-2 0  9993
2 55824  87.9145 282.3142 0002304  95.4708 264.6688 13.20836737155960
ONEWEB-0665             
1 55825U 23029AF  26129.03383535 -.00000175  00000+0 -50657-3 0  9991
2 55825  87.8921 297.5389 0001890  83.7790 276.3555 13.14503171154264
ONEWEB-0666             
1 55826U 23029AG  26128.94292060  .00002498  00000+0  61000-2 0  9994
2 55826  87.9140 282.3049 0001713 118.9388 241.1917 13.20879595155976
ONEWEB-0667             
1 55827U 23029AH  26128.93690350  .00000042  00000+0  71254-4 0  9995
2 55827  87.9163 282.2578 0001927  92.5175 267.6179 13.20730797155968
ONEWEB-0669             
1 55828U 23029AJ  26128.93208943  .00000002  00000+0 -27839-4 0  9996
2 55828  87.9150 282.2733 0002314 107.3043 252.8343 13.20770692155965
ONEWEB-0670             
1 55829U 23029AK  26129.01163341  .00000073  00000+0  16323-3 0  9991
2 55829  87.8921 297.5612 0002161  90.9625 269.1753 13.14503268154285
ONEWEB-0671             
1 55830U 23029AL  26129.01785735  .00000084  00000+0  17723-3 0  9997
2 55830  87.9146 312.7875 0001912  85.7153 274.4198 13.19725762153730
ONEWEB-0672             
1 55831U 23029AM  26128.92729851  .00012620  00000+0  30974-1 0  9994
2 55831  87.9152 282.2667 0002061 116.4983 243.6362 13.20747072155965
ONEWEB-0673             
1 55832U 23029AN  26129.07075896  .00000125  00000+0  28035-3 0  9999
2 55832  87.9154 312.7652 0001938  87.6401 272.4953 13.19723938153740
